NORAD_CAT_ID,OBJECT_NAME,OBJECT_TYPE,EPOCH,MEAN_MOTION,ECCENTRICITY,INCLINATION,RA_OF_ASC_NODE,ARG_OF_PERICENTER,MEAN_ANOMALY,BSTAR,MEAN_MOTION_DOT,MEAN_MOTION_DDOT,TLE_LINE0,TLE_LINE1,TLE_LINE2,SEMIMAJOR_AXIS,PERIOD,APOGEE,PERIGEE,DECAYED
52616.0,STARLINK-4015,PAYLOAD,2024-03-10 21:54:34,15.08834728,0.0001451,53.2168,300.727,99.3526,260.7631,-6.2003e-05,-1.274e-05,0.0,0 STARLINK-4015,1 52616U 22052U   24070.91289781 -.00001274  00000-0 -62003-4 0  9990,2 52616  53.2168 300.7270 0001451  99.3526 260.7631 15.08834728100979,6917.897,95.438,540.765,538.758,0.0
52616.0,STARLINK-4015,PAYLOAD,2024-03-11 21:45:21,15.08841275,0.0001376,53.216,296.2693,93.4098,266.7051,0.00051306,7.887e-05,0.0,0 STARLINK-4015,1 52616U 22052U   24071.90650308  .00007887  00000-0  51306-3 0  9994,2 52616  53.2160 296.2693 0001376  93.4098 266.7051 15.08841275101499,6917.876,95.437,540.693,538.79,0.0
52616.0,STARLINK-4015,PAYLOAD,2024-03-12 15:14:36,15.08839647,0.0001361,53.2156,292.9976,91.6112,268.5036,0.00012722,1.737e-05,0.0,0 STARLINK-4015,1 52616U 22052U   24072.63514275  .00001737  00000-0  12722-3 0  9994,2 52616  53.2156 292.9976 0001361  91.6112 268.5036 15.08839647101608,6917.881,95.438,540.688,538.805,0.0
52616.0,STARLINK-4015,PAYLOAD,2024-03-13 07:08:27,15.08844225,0.000152,53.2151,290.0236,91.1855,268.9312,0.00018104,2.595e-05,0.0,0 STARLINK-4015,1 52616U 22052U   24073.29754139  .00002595  00000-0  18104-3 0  9995,2 52616  53.2151 290.0236 0001520  91.1855 268.9312 15.08844225101336,6917.867,95.437,540.784,538.681,0.0
52616.0,STARLINK-4015,PAYLOAD,2024-03-13 21:26:55,15.08845342,0.000223,53.22,287.3463,89.3792,270.7456,0.00019505,2.818e-05,0.0,0 STARLINK-4015,1 52616U 22052U   24073.89370308  .00002818  00000-0  19505-3 0  9997,2 52616  53.2200 287.3463 0002230  89.3792 270.7456 15.08845342101791,6917.864,95.437,541.272,538.186,0.0
52616.0,STARLINK-4015,PAYLOAD,2024-03-14 06:59:14,15.08840916,0.0001502,53.215,285.56,79.2372,280.8789,0.00016058,2.269e-05,0.0,0 STARLINK-4015,1 52616U 22052U   24074.29114435  .00002269  00000-0  16058-3 0  9999,2 52616  53.2150 285.5600 0001502  79.2372 280.8789 15.08840916101851,6917.878,95.437,540.782,538.704,0.0
52616.0,STARLINK-4015,PAYLOAD,2024-03-14 21:17:43,15.08836688,0.0001616,53.2159,282.882,80.4113,279.7062,9.1173e-05,1.163e-05,0.0,0 STARLINK-4015,1 52616U 22052U   24074.88730750  .00001163  00000-0  91173-4 0  9992,2 52616  53.2159 282.8820 0001616  80.4113 279.7062 15.08836688101578,6917.891,95.438,540.873,538.638,0.0
52616.0,STARLINK-4015,PAYLOAD,2024-03-16 19:23:54,15.08842312,0.0001229,53.2152,274.2559,79.0022,281.1108,0.00015833,2.233e-05,0.0,0 STARLINK-4015,1 52616U 22052U   24076.80826760  .00002233  00000-0  15833-3 0  9990,2 52616  53.2152 274.2559 0001229  79.0022 281.1108 15.08842312102231,6917.873,95.437,540.589,538.888,0.0
52616.0,STARLINK-4015,PAYLOAD,2024-03-16 22:34:40,15.08843248,0.0001146,53.2148,273.6663,86.4856,273.6267,0.00014688,2.051e-05,0.0,0 STARLINK-4015,1 52616U 22052U   24076.94074762  .00002051  00000-0  14688-3 0  9997,2 52616  53.2148 273.6663 0001146  86.4856 273.6267 15.08843248101881,6917.87,95.437,540.528,538.943,0.0
52616.0,STARLINK-4015,PAYLOAD,2024-03-17 12:53:09,15.08841763,0.0001553,53.2172,270.9921,84.9082,275.2087,0.00010759,1.425e-05,0.0,0 STARLINK-4015,1 52616U 22052U   24077.53690986  .00001425  00000-0  10759-3 0  9994,2 52616  53.2172 270.9921 0001553  84.9082 275.2087 15.08841763101979,6917.875,95.437,540.814,538.666,0.0
52616.0,STARLINK-4015,PAYLOAD,2024-03-17 19:14:41,15.08841755,0.0001371,53.2158,269.8012,101.5423,258.5723,0.00019791,2.863e-05,0.0,0 STARLINK-4015,1 52616U 22052U   24077.80186778  .00002863  00000-0  19791-3 0  9995,2 52616  53.2158 269.8012 0001371 101.5423 258.5723 15.08841755102012,6917.875,95.437,540.688,538.792,0.0
52616.0,STARLINK-4015,PAYLOAD,2024-03-18 12:43:55,15.08842088,0.0001387,53.2158,266.531,97.3403,262.7746,0.00014673,2.048e-05,0.0,0 STARLINK-4015,1 52616U 22052U   24078.53050873  .00002048  00000-0  14673-3 0  9991,2 52616  53.2158 266.5310 0001387  97.3403 262.7746 15.08842088102498,6917.874,95.437,540.699,538.779,0.0
52616.0,STARLINK-4015,PAYLOAD,2024-03-18 14:19:19,15.08841507,0.0001384,53.2158,266.2341,91.9831,268.1319,0.00012659,1.727e-05,0.0,0 STARLINK-4015,1 52616U 22052U   24078.59674922  .00001727  00000-0  12659-3 0  9999,2 52616  53.2158 266.2341 0001384  91.9831 268.1319 15.08841507102133,6917.876,95.437,540.698,538.783,0.0
52616.0,STARLINK-4015,PAYLOAD,2024-03-19 17:20:54,15.08781936,0.0001671,53.2148,261.1794,53.0757,307.0388,-0.00085161,-0.00013794,0.0,0 STARLINK-4015,1 52616U 22052U   24079.72285039 -.00013794  00000-0 -85161-3 0  9999,2 52616  53.2148 261.1794 0001671  53.0757 307.0388 15.08781936102670,6918.058,95.441,541.079,538.767,0.0
52616.0,STARLINK-4015,PAYLOAD,2024-03-20 12:25:32,15.08815466,0.0001597,53.2161,257.6128,93.5665,266.551,-0.0001504,-2.679e-05,0.0,0 STARLINK-4015,1 52616U 22052U   24080.51773436 -.00002679  00000-0 -15040-3 0  9990,2 52616  53.2161 257.6128 0001597  93.5665 266.5510 15.08815466102425,6917.955,95.439,540.925,538.716,0.0
52616.0,STARLINK-4015,PAYLOAD,2024-03-20 17:11:41,15.08825355,0.0001704,53.2158,256.7199,99.8595,260.259,3.3397e-05,2.43e-06,0.0,0 STARLINK-4015,1 52616U 22052U   24080.71645290  .00000243  00000-0  33397-4 0  9997,2 52616  53.2158 256.7199 0001704  99.8595 260.2590 15.08825355102821,6917.925,95.438,540.969,538.611,0.0
52616.0,STARLINK-4015,PAYLOAD,2024-03-21 04:19:24,15.08803906,0.0001658,53.2163,254.6392,89.7583,270.3599,0.00093983,0.00014686,0.0,0 STARLINK-4015,1 52616U 22052U   24081.18014184  .00014686  00000-0  93983-3 0  9993,2 52616  53.2163 254.6392 0001658  89.7583 270.3599 15.08803906102898,6917.991,95.44,541.003,538.709,0.0
52616.0,STARLINK-4015,PAYLOAD,2024-03-21 10:40:55,15.08859751,0.000135,53.2161,253.4454,70.1036,290.0102,-0.00046748,-7.724e-05,0.0,0 STARLINK-4015,1 52616U 22052U   24081.44508315 -.00007724  00000-0 -46748-3 0  9990,2 52616  53.2161 253.4454 0001350  70.1036 290.0102 15.08859751102931,6917.82,95.436,540.619,538.751,0.0
52616.0,STARLINK-4015,PAYLOAD,2024-03-21 18:37:51,15.08868683,0.0001319,53.2143,251.9602,88.961,271.1533,0.001211,0.00019053,0.0,0 STARLINK-4015,1 52616U 22052U   24081.77628900  .00019053  00000-0  12110-2 0  9990,2 52616  53.2143 251.9602 0001319  88.9610 271.1533 15.08868683102616,6917.793,95.436,540.57,538.745,0.0
52616.0,STARLINK-4015,PAYLOAD,2024-03-22 20:04:00,15.08864086,0.0001213,53.2143,247.2017,86.5824,273.5307,0.00030635,4.594e-05,0.0,0 STARLINK-4015,1 52616U 22052U   24082.83611179  .00004594  00000-0  30635-3 0  9995,2 52616  53.2143 247.2017 0001213  86.5824 273.5307 15.08864086103145,6917.807,95.436,540.511,538.833,0.0
52616.0,STARLINK-4015,PAYLOAD,2024-03-23 10:22:28,15.08847966,0.0001136,53.2151,244.5269,75.2147,284.8971,-0.00014221,-2.551e-05,0.0,0 STARLINK-4015,1 52616U 22052U   24083.43227271 -.00002551  00000-0 -14221-3 0  9994,2 52616  53.2151 244.5269 0001136  75.2147 284.8971 15.08847966103230,6917.856,95.437,540.507,538.935,0.0
52616.0,STARLINK-4015,PAYLOAD,2024-03-23 18:19:24,15.08846862,0.0001208,53.2146,243.0385,85.5402,274.5728,-0.00013432,-2.425e-05,0.0,0 STARLINK-4015,1 52616U 22052U   24083.76347224 -.00002425  00000-0 -13432-3 0  9994,2 52616  53.2146 243.0385 0001208  85.5402 274.5728 15.08846862102919,6917.859,95.437,540.56,538.889,0.0
52616.0,STARLINK-4015,PAYLOAD,2024-03-24 10:13:15,15.08825347,0.0001271,53.2158,240.0625,95.6314,264.4823,-0.0003495,-5.844e-05,0.0,0 STARLINK-4015,1 52616U 22052U   24084.42587834 -.00005844  00000-0 -34950-3 0  9997,2 52616  53.2158 240.0625 0001271  95.6314 264.4823 15.08825347103381,6917.925,95.438,540.669,538.911,0.0
52616.0,STARLINK-4015,PAYLOAD,2024-03-24 14:59:25,15.0883566,0.0001722,53.2157,239.1727,88.7472,271.3717,-5.9488e-05,-1.235e-05,0.0,0 STARLINK-4015,1 52616U 22052U   24084.62459758 -.00001235  00000-0 -59488-4 0  9996,2 52616  53.2157 239.1727 0001722  88.7472 271.3717 15.08835660103042,6917.894,95.438,540.95,538.567,0.0
52616.0,STARLINK-4015,PAYLOAD,2024-03-24 19:45:34,15.08857495,0.0001351,53.2153,238.2772,77.5659,282.5484,0.00051624,7.941e-05,0.0,0 STARLINK-4015,1 52616U 22052U   24084.82331370  .00007941  00000-0  51624-3 0  9998,2 52616  53.2153 238.2772 0001351  77.5659 282.5484 15.08857495103448,6917.827,95.436,540.627,538.757,0.0
52616.0,STARLINK-4015,PAYLOAD,2024-03-24 21:20:57,15.08858531,0.0001371,53.2153,237.9803,85.3997,274.7151,0.00079628,0.00012414,0.0,0 STARLINK-4015,1 52616U 22052U   24084.88955495  .00012414  00000-0  79628-3 0  9999,2 52616  53.2153 237.9803 0001371  85.3997 274.7151 15.08858531103089,6917.824,95.436,540.637,538.74,0.0
52616.0,STARLINK-4015,PAYLOAD,2024-03-25 03:42:30,15.08849831,0.0001334,53.2155,236.7914,81.0036,279.1107,0.00053541,8.246e-05,0.0,0 STARLINK-4015,1 52616U 22052U   24085.15451454  .00008246  00000-0  53541-3 0  9990,2 52616  53.2155 236.7914 0001334  81.0036 279.1107 15.08849831103495,6917.85,95.437,540.638,538.792,0.0
52616.0,STARLINK-4015,PAYLOAD,2024-03-25 13:14:49,15.08832923,0.0001494,53.2154,235.0066,93.9979,266.1184,0.00015306,2.148e-05,0.0,0 STARLINK-4015,1 52616U 22052U   24085.55196404  .00002148  00000-0  15306-3 0  9997,2 52616  53.2154 235.0066 0001494  93.9979 266.1184 15.08832923103551,6917.902,95.438,540.801,538.733,0.0
52616.0,STARLINK-4015,PAYLOAD,2024-03-25 16:25:36,15.08834995,0.0001674,53.2154,234.4121,87.1616,272.9568,0.00030654,4.593e-05,0.0,0 STARLINK-4015,1 52616U 22052U   24085.68444516  .00004593  00000-0  30654-3 0  9990,2 52616  53.2154 234.4121 0001674  87.1616 272.9568 15.08834995103203,6917.896,95.438,540.919,538.603,0.0
52616.0,STARLINK-4015,PAYLOAD,2024-03-26 14:41:00,15.08832054,0.0001698,53.2161,230.2485,86.7439,273.3747,0.00022444,3.285e-05,0.0,0 STARLINK-4015,1 52616U 22052U   24086.61181154  .00003285  00000-0  22444-3 0  9995,2 52616  53.2161 230.2485 0001698  86.7439 273.3747 15.08832054103345,6917.905,95.438,540.944,538.595,0.0
